No.,name,エリア,height,難易度(5段階),定数(体力度),参考日程,Latitude,Longitude,住所,googlemaplink
1,利尻岳,北海道,1719m,★★★,37,日帰り,45.18095091,141.2412151,〒097-0211 北海道利尻郡利尻富士町鬼脇,"<a  href=""https://www.google.com/maps/place/%E5%88%A9%E5%B0%BB%E5%B1%B1%EF%BC%88%E5%88%A9%E5%B0%BB%E5%AF%8C%E5%A3%AB%EF%BC%89/@45.1805879,141.232396,15z/data=!3m1!4b1!4m5!3m4!1s0x5f0fc5cc1a5e0fdd:0x36515a93e1d4535d!8m2!3d45.1805888!4d141.2411722"" target=”_blank”>Googlemap</a>"
2,羅臼岳,北海道,1661m,★★★,39,日帰り,44.07586021,145.122072,〒086-1822 北海道目梨郡羅臼町湯ノ沢町,"<a href=""https://www.google.com/maps/place/%E7%BE%85%E8%87%BC%E5%B2%B3/@44.0757831,145.1133387,15z/data=!3m1!4b1!4m5!3m4!1s0x5f6cc0514574f5a3:0x87be20166cf393fa!8m2!3d44.0757686!4d145.1221149"" target=”_blank”>Googlemap</a>"
3,斜里岳,北海道,1547m,★★★,29,日帰り,43.76595561,144.7173801,〒099-4404 北海道斜里郡清里町江南,"<a href=""https://www.google.com/maps/place/%E6%96%9C%E9%87%8C%E5%B2%B3/@43.7659401,144.7086468,15z/data=!3m1!4b1!4m5!3m4!1s0x5f6d10653943a52b:0x6975810c5ad2aa48!8m2!3d43.7659255!4d144.717423"" target=”_blank”>Googlemap</a>"
4,阿寒岳,北海道,1499m,★★,27,日帰り,43.38687876,144.0086097,〒089-3964 北海道足寄郡足寄町茂足寄,"<a href=""https://www.google.com/maps/place/%E9%9B%8C%E9%98%BF%E5%AF%92%E5%B2%B3/@43.3741314,143.726361,11z/data=!4m10!1m2!2m1!1z6Zi_5a-S5bKz!3m6!1s0x5f72893a8925c903:0xf93ffd9c43ac984e!8m2!3d43.3868307!4d144.0086628!15sCgnpmL_lr5LlsrNaDCIK6Zi_5a-SIOWys5IBBHBlYWuaASRDaGREU1VoTk1HOW5TMFZKUTBGblNVTmhjV1pYVTNWQlJSQULgAQA!16s%2Fm%2F04mxrhx"" target=”_blank”>Googlemap</a>"
5,大雪山,北海道,2290m,★★★,30,日帰り,43.68512698,142.8062647,〒071-1471 北海道上川郡東川町ノカナン,"<a href=""https://www.google.com/maps/place/%E5%A4%A7%E9%9B%AA%E5%B1%B1/@43.6850804,142.7975314,15z/data=!3m1!4b1!4m5!3m4!1s0x5f0d2919b0d066f3:0x60a5eafec33c7b38!8m2!3d43.6850658!4d142.8063076"" target=”_blank”>Googlemap</a>"
6,トムラウシ山,北海道,2141m,★★★,67,1泊2日,43.52727021,142.8487498,〒071-0235 北海道上川郡美瑛町白金,"<a href=""https://www.google.com/maps/place/%E3%83%88%E3%83%A0%E3%83%A9%E3%82%A6%E3%82%B7%E5%B1%B1/@43.5272858,142.8400165,15z/data=!3m1!4b1!4m5!3m4!1s0x5f732ca06e599da7:0xe5a79fa7fae71099!8m2!3d43.5272711!4d142.8487927"" target=”_blank”>Googlemap</a>"
7,十勝岳,北海道,2077m,★★★,40,日帰り,43.41796792,142.6862211,〒071-0235 北海道上川郡美瑛町白金,"<a href=""https://www.google.com/maps/place/%E5%8D%81%E5%8B%9D%E5%B2%B3/@43.4180459,142.6774878,15z/data=!3m1!4b1!4m5!3m4!1s0x5f733415bf36796d:0xe761b589874b2913!8m2!3d43.4180311!4d142.686264"" target=”_blank”>Googlemap</a>"
8,幌尻岳,北海道,2052m,★★★★,64,2泊3日,42.71949296,142.6828372,〒055-0415 北海道沙流郡平取町豊糠,"<a href=""https://www.google.com/maps/place/%E5%B9%8C%E5%B0%BB%E5%B2%B3/@42.7195718,142.674061,15z/data=!3m1!4b1!4m5!3m4!1s0x5f7464eca833f339:0x95d9b8b40bbdf25d!8m2!3d42.7195569!4d142.6828372"" target=”_blank”>Googlemap</a>"
9,後方羊蹄山,北海道,1898m,★★★,42,日帰り,42.82700659,140.8067781,〒044-0131 北海道虻田郡京極町川西,"<a href=""https://www.google.com/maps/place/%E7%BE%8A%E8%B9%84%E5%B1%B1/@42.8269909,140.7980448,15z/data=!3m1!4b1!4m5!3m4!1s0x5f0ab3d467a17fa5:0x7a8d8b7a7eeed95a!8m2!3d42.826976!4d140.806821"" target=”_blank”>Googlemap</a>"
10,岩木山,東北,1625m,★★★,32,日帰り,40.6558659,140.3029642,〒036-1343 青森県弘前市百沢東岩木山,"<a href=""https://www.google.com/maps/place/%E5%B2%A9%E6%9C%A8%E5%B1%B1/@40.6559473,140.294188,15z/data=!3m1!4b1!4m5!3m4!1s0x5f9a5492c72b3d39:0x75c555ff8940e76f!8m2!3d40.6559319!4d140.3029642"" target=”_blank”>Googlemap</a>"
11,八甲田山,東北,1585m,★★,20,日帰り,40.66480602,140.9120791,〒030-0955 青森県青森市駒込深沢,"<a href=""https://www.google.com/maps/place/%E5%85%AB%E7%94%B2%E7%94%B0%E5%B1%B1/@40.6647735,140.9077446,16z/data=!3m1!4b1!4m5!3m4!1s0x5f9b12f29eff7acb:0x56624a1e625723e!8m2!3d40.6647741!4d140.912122"" target=”_blank”>Googlemap</a>"
12,八幡平,東北,1613m,★★,16,日帰り,39.95771887,140.854014,〒028-7557 岩手県八幡平市細野,"<a href=""https://www.google.com/maps/place/%E5%85%AB%E5%B9%A1%E5%B9%B3/@39.95877,140.8572258,15.25z/data=!4m13!1m7!3m6!1s0x5f853b0a54f629e7:0x9177a6798ac86446!2z5bKp5omL55yM5YWr5bmh5bmz5biC!3b1!8m2!3d39.9565121!4d141.0712561!3m4!1s0x5f8546d5108a76b7:0xd54650b90d2738f5!8m2!3d39.9577639!4d140.8540821"" target=”_blank”>Googlemap</a>"
13,岩手山,東北,2038m,★★★,37,日帰り,39.85260379,141.0009531,〒028-7302 岩手県八幡平市松尾寄木,"<a href=""https://www.google.com/maps/place/%E5%B2%A9%E6%89%8B%E5%B1%B1/@39.8526203,140.9966401,16z/data=!3m1!4b1!4m5!3m4!1s0x5f856c6e62f7fe53:0xb522b28d0d1a6361!8m2!3d39.8526209!4d141.0010175"" target=”_blank”>Googlemap</a>"
14,早池峰山,東北,1917m,★★,19,日帰り,39.55840897,141.4889644,〒028-2421 岩手県宮古市江繋,"<a href=""https://www.google.com/maps/place/%E6%97%A9%E6%B1%A0%E5%B3%B0%E5%B1%B1/@39.558409,141.4846085,16z/data=!3m1!4b1!4m5!3m4!1s0x5f8594f76f71e597:0x684afd0a15c9b3ed!8m2!3d39.5584096!4d141.4889859"" target=”_blank”>Googlemap</a>"
15,鳥海山,東北,2236m,★★★,34,日帰り,39.09884853,140.0440476,〒999-8521 山形県飽海郡遊佐町吹浦,"<a href=""https://www.google.com/maps/place/%E9%B3%A5%E6%B5%B7%E5%B1%B1/@39.098613,140.0371895,15.5z/data=!4m5!3m4!1s0x5f8eed559b6f460d:0x8e67ba4656d9ec4d!8m2!3d39.0988592!4d140.0440705"" target=”_blank”>Googlemap</a>"
16,月山,東北,1984m,★★,22,日帰り,38.54947319,140.0269756,〒997-0131 山形県鶴岡市羽黒町川代,"<a href=""https://www.google.com/maps/place/%E6%9C%88%E5%B1%B1/@38.54949,140.0226197,16z/data=!3m1!4b1!4m5!3m4!1s0x5f8bf13e67dbd9b7:0x6840d16077b4de6a!8m2!3d38.5494906!4d140.0269971"" target=”_blank”>Googlemap</a>"
17,朝日連峰,東北,1870m,☆☆,☆☆☆,2泊3日,38.26052172,139.9221791,〒990-1573 山形県西村山郡朝日町立木,"<a href=""https://www.google.com/maps/place/%E6%9C%9D%E6%97%A5%E5%B2%B3/@38.2605554,139.9178446,16z/data=!3m1!4b1!4m5!3m4!1s0x5f8ba3d2bd319ae3:0x9113dc52a1fc89ed!8m2!3d38.260556!4d139.922222"" target=”_blank”>Googlemap</a>"
18,蔵王山,東北,1841m,★★,14,日帰り,38.1529497,140.4457623,〒990-2301 山形県山形市蔵王温泉,"<a href=""https://www.google.com/maps/place/%E8%94%B5%E7%8E%8B%E5%B1%B1/@38.1529666,140.4414493,16z/data=!3m1!4b1!4m5!3m4!1s0x5f8a48d74f3ec093:0xa1e58e355a14da75!8m2!3d38.1529672!4d140.4458267"" target=”_blank”>Googlemap</a>"
19,飯豊連峰,東北,2105m,☆☆☆,☆☆☆,2泊3日,37.85481018,139.7071636,〒969-4108 福島県喜多方市山都町一ノ木,"<a href=""https://www.google.com/maps/place/%E9%A3%AF%E8%B1%8A%E5%B1%B1/@37.8495425,139.6897234,14.71z/data=!4m13!1m7!3m6!1s0x5f8ad9e35942775d:0x5a8adc2ac34bd716!2z6aOv6LGK5bGx5Zyw!3b1!8m2!3d37.833056!4d139.6605559!3m4!1s0x5f8ad96e8a4757cf:0xa72f43564af626ea!8m2!3d37.8548303!4d139.7071052"" target=”_blank”>Googlemap</a>"
20,吾妻山,東北,2035m,☆☆,☆☆☆,1泊2日,37.73865161,140.1404546,〒966-0501 福島県耶麻郡北塩原村檜原,"<a href=""https://www.google.com/maps/place/%E8%A5%BF%E5%90%BE%E5%A6%BB%E5%B1%B1/@37.7353935,140.0779699,12z/data=!4m10!1m2!2m1!1z5ZC-5aa75bGx!3m6!1s0x5f8a95c30e75d5fd:0xa92734632b52a140!8m2!3d37.7384646!4d140.1408447!15sCgnlkL7lprvlsbFaDCIK5ZC-5aa7IOWxsZIBBHBlYWuaASRDaGREU1VoTk1HOW5TMFZKUTBGblNVUnRPVnBQTjJ4UlJSQULgAQA!16s%2Fg%2F120rlltd"" target=”_blank”>Googlemap</a>"
21,安達太良山,東北,1700m,☆☆,☆,日帰り,37.62108768,140.28784,〒963-1301 福島県郡山市熱海町石筵黒森,"<a href=""https://www.google.com/maps/place/%E5%AE%89%E9%81%94%E5%A4%AA%E8%89%AF%E5%B1%B1/@37.6211217,140.2834841,16z/data=!3m1!4b1!4m5!3m4!1s0x5f8aa1dc54f58cd1:0xc9e714fabe009a0c!8m2!3d37.6211223!4d140.2878615"" target=”_blank”>Googlemap</a>"
22,磐梯山,東北,1819m,☆☆,☆☆,日帰り,37.60085946,140.0720368,〒969-3100 福島県耶麻郡猪苗代町磐梯山,"<a href=""https://www.google.com/maps/place/%E7%A3%90%E6%A2%AF%E5%B1%B1/@37.6009411,140.0678727,16z/data=!3m1!4b1!4m5!3m4!1s0x5f8aa565471aad81:0xb6ecffcff8edabe5!8m2!3d37.6009417!4d140.0722501"" target=”_blank”>Googlemap</a>"
23,会津駒ヶ岳,東北,2132m,☆☆,☆☆,1泊2日,37.04748229,139.3538461,〒967-0500 福島県南会津郡檜枝岐村駒ケ岳,"<a href=""https://www.google.com/maps/place/%E4%BC%9A%E6%B4%A5%E9%A7%92%E3%83%B6%E5%B2%B3/@37.0474994,139.3495116,16z/data=!3m1!4b1!4m5!3m4!1s0x601e2d584a09ec79:0xfd3ac719a0dbfd50!8m2!3d37.0475!4d139.353889"" target=”_blank”>Googlemap</a>"
24,那須岳,北関東,1915m,☆☆,☆☆,1泊2日,37.14254685,139.9553736,〒325-0111 栃木県那須塩原市板室,"<a href=""https://www.google.com/maps/place/%E9%82%A3%E9%A0%88%E5%B2%B3/@37.1426666,139.9465116,15z/data=!3m1!4b1!4m5!3m4!1s0x601f8b6bb812cd65:0x1e3402d8e4d21192!8m2!3d37.1426503!4d139.9552878"" target=”_blank”>Googlemap</a>"
25,筑波山,北関東,877m,☆,☆,日帰り,36.22537483,140.1074925,〒300-4352 茨城県つくば市筑波,"<a href=""https://www.google.com/maps/place/%E7%AD%91%E6%B3%A2%E5%B1%B1/@36.2253921,140.0987163,15z/data=!3m1!4b1!4m5!3m4!1s0x6022042b41065381:0x7c8e52f7f8f597c8!8m2!3d36.2253757!4d140.1074925"" target=”_blank”>Googlemap</a>"
26,燧ヶ岳,尾瀬,2356m,☆☆,☆☆,1泊2日,36.97124686,139.3043842,〒967-0531 福島県南会津郡檜枝岐村燧ケ岳,"<a href=""https://www.google.com/maps/place/%E7%87%A7%E3%83%B6%E5%B2%B3/@37.0010019,139.2242183,12z/data=!4m10!1m2!2m1!1z54en44O25bKz!3m6!1s0x601e33e2bf85f06d:0x76cbee21f35131d!8m2!3d36.9552015!4d139.285388!15sCgnnh6fjg7blsrOSAQRwZWFr4AEA!16s%2Fg%2F122w6288"" target=”_blank”>Googlemap</a>"
27,至仏山,尾瀬,2228m,☆☆,☆☆,1泊2日,36.90321686,139.1732973,〒378-0411 群馬県利根郡片品村戸倉,"<a href=""https://www.google.com/maps/place/%E8%87%B3%E4%BB%8F%E5%B1%B1/@36.9032683,139.164564,15z/data=!3m1!4b1!4m5!3m4!1s0x601e3a25fcbc8673:0x492fa0f7c5b57165!8m2!3d36.903252!4d139.1733402"" target=”_blank”>Googlemap</a>"
28,武尊山,上州,2158m,☆☆,☆☆☆,日帰り,36.80531192,139.1325881,〒378-0102 群馬県利根郡川場村川場湯原,"<a href=""https://www.google.com/maps/place/%E6%AD%A6%E5%B0%8A%E5%B1%B1/@36.8053635,139.1238978,15z/data=!3m1!4b1!4m5!3m4!1s0x601e475736587ad7:0xf355ce0a803255ca!8m2!3d36.8053471!4d139.132674"" target=”_blank”>Googlemap</a>"
29,赤城山,上州,1828m,☆,☆☆,日帰り,36.53885294,139.1664295,〒371-0101 群馬県前橋市富士見町赤城山,"<a href=""https://www.google.com/maps/place/%E8%B5%A4%E5%9F%8E%E5%B1%B1/@36.5389736,139.1576533,15z/data=!3m1!4b1!4m5!3m4!1s0x601e580d37ce83d5:0xf2d8580aaadac627!8m2!3d36.5389572!4d139.1664295"" target=”_blank”>Googlemap</a>"
30,男体山,日光,2486m,☆☆,☆☆,日帰り,36.76541482,139.4907036,〒321-1661 栃木県日光市中宮祠,"<a href=""https://www.google.com/maps/place/%E7%94%B7%E4%BD%93%E5%B1%B1/@36.7655008,139.4819703,15z/data=!3m1!4b1!4m5!3m4!1s0x601faefc928ed7a5:0x31d961809e1c60e4!8m2!3d36.7654844!4d139.4907465"" target=”_blank”>Googlemap</a>"
31,日光白根山,日光,2578m,☆☆,☆☆,日帰り,36.79863161,139.3758686,〒378-0414 群馬県利根郡片品村東小川,"<a href=""https://www.google.com/maps/place/%E6%97%A5%E5%85%89%E7%99%BD%E6%A0%B9%E5%B1%B1/@36.7986832,139.3671353,15z/data=!3m1!4b1!4m5!3m4!1s0x601fb2d714b73dcf:0x86ed7d115207607!8m2!3d36.7986668!4d139.3759115"" target=”_blank”>Googlemap</a>"
32,皇海山,足尾,2144m,☆☆,☆,日帰り,36.68981215,139.3371069,〒378-0303 群馬県沼田市利根町追貝,"<a href=""https://www.google.com/maps/place/%E7%9A%87%E6%B5%B7%E5%B1%B1/@36.6898982,139.3283736,15z/data=!3m1!4b1!4m5!3m4!1s0x601e536e6093aea1:0x833b560dab3a9c99!8m2!3d36.6898818!4d139.3371498"" target=”_blank”>Googlemap</a>"
33,越後駒ヶ岳,上信越,2003m,☆☆,☆☆☆,1泊2日,37.12357591,139.075278,〒949-7234 新潟県南魚沼市荒山,"<a href=""https://www.google.com/maps/place/%E8%B6%8A%E5%BE%8C%E9%A7%92%E3%83%B6%E5%B2%B3/@37.1236272,139.0665018,15z/data=!3m1!4b1!4m5!3m4!1s0x5ff589614fcfe83f:0x62236c48d79b76d!8m2!3d37.123611!4d139.075278"" target=”_blank”>Googlemap</a>"
34,平ヶ岳,上信越,2141m,☆,☆☆☆,1泊2日,37.0022079,139.170891,〒946-0084 新潟県魚沼市宇津野,"<a href=""https://www.google.com/maps/place/%E5%B9%B3%E3%83%B6%E5%B2%B3/@37.0022422,139.1620719,15z/data=!3m1!4b1!4m5!3m4!1s0x601e2506680ef22f:0x852631eae47dc3e!8m2!3d37.002243!4d139.1708481"" target=”_blank”>Googlemap</a>"
35,巻機山,上信越,1967m,☆,☆☆,前夜泊日帰り,36.97855149,138.9643751,〒949-6754 新潟県南魚沼市永松,"<a href=""https://www.google.com/maps/place/%E5%B7%BB%E6%A9%9F%E5%B1%B1/@36.9786029,138.9555989,15z/data=!3m1!4b1!4m5!3m4!1s0x601e1e9c1633e8a7:0xbec3e043a5dfdfa5!8m2!3d36.9785866!4d138.9643751"" target=”_blank”>Googlemap</a>"
36,谷川岳,上信越,1963m,☆☆,☆☆,前夜泊日帰り,36.83452388,138.9301973,〒379-1728 群馬県利根郡みなかみ町湯桧曽,"<a href=""https://www.google.com/maps/place/%E8%B0%B7%E5%B7%9D%E5%B2%B3/@36.8346098,138.9213782,15z/data=!3m1!4b1!4m5!3m4!1s0x601e10fd3588309b:0x22f5741279db2da3!8m2!3d36.8345934!4d138.9301544"" target=”_blank”>Googlemap</a>"
37,苗場山,上信越,2145m,☆☆,☆☆,2泊3日,36.84571519,138.6904786,〒949-6212 新潟県南魚沼郡湯沢町三国,"<a href=""https://www.google.com/maps/place/%E8%8B%97%E5%A0%B4%E5%B1%B1/@36.845801,138.6817024,15z/data=!3m1!4b1!4m5!3m4!1s0x601dfe70eac3e33b:0x6d91c761972215d6!8m2!3d36.8457847!4d138.6904786"" target=”_blank”>Googlemap</a>"
38,雨飾山,上信越,1963m,☆☆,☆☆,前夜泊日帰り,36.90214706,137.9624713,〒949-0544 新潟県糸魚川市梶山,"<a href=""https://www.google.com/maps/place/%E9%9B%A8%E9%A3%BE%E5%B1%B1/@36.9021985,137.9536951,15z/data=!3m1!4b1!4m5!3m4!1s0x5ff6479eabe2acf3:0x46e43be3719f26bb!8m2!3d36.9021822!4d137.9624713"" target=”_blank”>Googlemap</a>"
39,妙高山,上信越,2454m,☆☆,☆☆,1泊2日,36.89247631,138.1130459,〒949-2235 新潟県妙高市関山,"<a href=""https://www.google.com/maps/place/%E5%A6%99%E9%AB%98%E5%B1%B1/@36.8925278,138.1042697,15z/data=!3m1!4b1!4m5!3m4!1s0x5ff63e91d05d4ac9:0xe7bef3334b5ff96f!8m2!3d36.8925115!4d138.1130459"" target=”_blank”>Googlemap</a>"
40,火打山,上信越,2462m,☆☆,☆☆,1泊2日,36.92264576,138.0681294,〒949-1223 新潟県糸魚川市中川原新田,"<a href=""https://www.google.com/maps/place/%E7%81%AB%E6%89%93%E5%B1%B1/@36.9227315,138.0593532,15z/data=!3m1!4b1!4m5!3m4!1s0x5ff63f70de24d355:0xd440e52e69477d77!8m2!3d36.9227152!4d138.0681294"" target=”_blank”>Googlemap</a>"
41,高妻山,上信越,2353m,☆☆,☆☆☆,日帰り,36.7999344,138.0519341,〒381-4101 長野県長野市戸隠,"<a href=""https://www.google.com/maps/place/%E9%AB%98%E5%A6%BB%E5%B1%B1/@36.8000203,138.0431579,15z/data=!3m1!4b1!4m5!3m4!1s0x5ff6303f9c3ee7bf:0x6b972e9fb5a087c2!8m2!3d36.800004!4d138.0519341"" target=”_blank”>Googlemap</a>"
42,草津白根山,上信越,2165m,☆,☆,前夜泊1日,36.61996473,138.535,〒377-1711 群馬県吾妻郡草津町草津,"<a href=""https://www.google.com/maps/place/%E8%8D%89%E6%B4%A5%E7%99%BD%E6%A0%B9%E5%B1%B1/@36.6200164,138.5262238,15z/data=!3m1!4b1!4m5!3m4!1s0x601def3385b78abf:0xf56ca7be4851531c!8m2!3d36.62!4d138.535"" target=”_blank”>Googlemap</a>"
43,四阿山,上信越,2354m,☆☆,☆☆,前夜泊1日,36.54135922,138.4125345,〒377-1614 群馬県吾妻郡嬬恋村田代,"<a href=""https://www.google.com/maps/place/%E5%9B%9B%E9%98%BF%E5%B1%B1/@36.5414454,138.4037797,15z/data=!3m1!4b1!4m5!3m4!1s0x601deadf2fe62beb:0xf137e6f30635bac5!8m2!3d36.541429!4d138.4125345"" target=”_blank”>Googlemap</a>"
44,浅間山,上信越,2568m,☆,☆☆,前夜泊1日,36.40760024,138.5206426,〒377-1524 群馬県吾妻郡嬬恋村鎌原,"<a href=""https://www.google.com/maps/place/%E6%B5%85%E9%96%93%E5%B1%B1/@36.407652,138.5119093,15z/data=!3m1!4b1!4m5!3m4!1s0x601dcf83e00cf171:0xeb942470140439fb!8m2!3d36.4076356!4d138.5206855"" target=”_blank”>Googlemap</a>"
45,両神山,秩父,1723m,☆☆,☆☆,日帰り,36.02354144,138.8412195,〒368-0201 埼玉県秩父郡小鹿野町両神薄,"<a href=""https://www.google.com/maps/place/%E4%B8%A1%E7%A5%9E%E5%B1%B1/@36.0236329,138.8324526,15z/data=!3m1!4b1!4m5!3m4!1s0x601ea48a40d9e58b:0xf58d2882cc37bcee!8m2!3d36.0236164!4d138.8412288"" target=”_blank”>Googlemap</a>"
46,甲武信岳,奥秩父,2475m,☆☆,☆☆,1泊2日,35.90918162,138.728981,〒404-0201 山梨県山梨市三富川浦,"<a href=""https://www.google.com/maps/place/%E7%94%B2%E6%AD%A6%E4%BF%A1%E3%83%B6%E5%B2%B3/@35.9092338,138.7201619,15z/data=!3m1!4b1!4m5!3m4!1s0x601ea81aa6152be7:0x28b73d69b1f8cf0f!8m2!3d35.9092172!4d138.7289381"" target=”_blank”>Googlemap</a>"
47,金峰山,奥秩父,2595m,☆☆,☆☆,前夜泊1日,35.87184893,138.6253839,〒384-1401 長野県南佐久郡川上村川端下,"<a href=""https://www.google.com/maps/place/%E9%87%91%E5%B3%B0%E5%B1%B1/@35.8718663,138.6166077,15z/data=!3m1!4b1!4m5!3m4!1s0x601c04b3dac80729:0xe2be9b5c2c12bb4e!8m2!3d35.8718498!4d138.6253839"" target=”_blank”>Googlemap</a>"
48,瑞牆山,奥秩父,2230m,☆☆,☆☆,前夜泊1日,35.89343425,138.5920852,〒408-0101 山梨県北杜市須玉町小尾,"<a href=""https://www.google.com/maps/place/%E7%91%9E%E7%89%86%E5%B1%B1/@35.8935212,138.583309,15z/data=!3m1!4b1!4m5!3m4!1s0x601c1af963fca6c1:0x7ffdc181dcbb590b!8m2!3d35.8935046!4d138.5920852"" target=”_blank”>Googlemap</a>"
49,雲取山,奥秩父,2017m,☆,☆☆,1泊2日,35.8554598,138.943958,〒369-1901 埼玉県秩父市大滝,"<a href=""https://www.google.com/maps/place/%E9%9B%B2%E5%8F%96%E5%B1%B1/@35.855512,138.9351818,15z/data=!3m1!4b1!4m5!3m4!1s0x60194cb7173d961d:0x7078a18244f514d0!8m2!3d35.8554954!4d138.943958"" target=”_blank”>Googlemap</a>"
50,大菩薩嶺,奥秩父,2057m,☆,☆☆,1泊2日,35.74863339,138.8455446,〒409-0301 山梨県北都留郡丹波山村,"<a href=""https://www.google.com/maps/place/%E5%A4%A7%E8%8F%A9%E8%96%A9%E5%B6%BA/@35.7487553,138.8368543,15z/data=!3m1!4b1!4m5!3m4!1s0x601951875acc773f:0xc9f18cb2c57efd1!8m2!3d35.7487387!4d138.8456305"" target=”_blank”>Googlemap</a>"
51,丹沢,南関東,1567m,☆☆,☆☆,1泊2日,35.47446328,139.1627969,〒258-0202 神奈川県足柄上郡山北町玄倉,"<a href=""https://www.google.com/maps/place/%E4%B8%B9%E6%B2%A2%E5%B1%B1/@35.4745507,139.1540636,15z/data=!3m1!4b1!4m5!3m4!1s0x60190f01fb353a13:0x923829d368f675ad!8m2!3d35.474534!4d139.1628398"" target=”_blank”>Googlemap</a>"
52,富士山,南関東,3776m,☆,☆☆☆,1泊2日,35.36051969,138.7273205,〒418-0112 静岡県富士宮市北山,"<a href=""https://www.google.com/maps/place/%E5%AF%8C%E5%A3%AB%E5%B1%B1/@35.3606422,138.7185872,15z/data=!3m1!4b1!4m5!3m4!1s0x6019629a42fdc899:0xa6a1fcc916f3a4df!8m2!3d35.3606255!4d138.7273634"" target=”_blank”>Googlemap</a>"
53,天城山,南関東,1406m,☆,☆☆,前夜泊1日,34.85803482,139.0242004,〒413-0301 静岡県賀茂郡東伊豆町大川,"<a href=""https://www.google.com/maps/place/%E5%A4%A9%E5%9F%8E%E5%B1%B1/@34.8581933,139.0154242,15z/data=!3m1!4b1!4m5!3m4!1s0x6019e878b2fbcbbf:0x1cf142d196143fff!8m2!3d34.8581765!4d139.0242004"" target=”_blank”>Googlemap</a>"
54,白馬岳,北アルプス,2932m,☆☆☆,☆☆☆,1泊2日,36.75871747,137.758611,〒399-9301 長野県北安曇郡白馬村北城,"<a href=""https://www.google.com/maps/place/%E7%99%BD%E9%A6%AC%E5%B2%B3/@36.7587261,137.7542121,16z/data=!3m1!4b1!4m5!3m4!1s0x5ff7cbce8a41e5db:0x410894def7f0130!8m2!3d36.7587181!4d137.7585895"" target=”_blank”>Googlemap</a>"
55,五竜岳,北アルプス,2814m,☆☆☆,☆☆☆,2泊3日,36.65842377,137.752593,〒938-0174 富山県黒部市宇奈月町音澤,"<a href=""https://www.google.com/maps/place/%E4%BA%94%E7%AB%9C%E5%B2%B3/@36.6584324,137.7482585,16z/data=!3m1!4b1!4m5!3m4!1s0x5ff7c5495a1e6b83:0x3d2f5103033dad0e!8m2!3d36.6584244!4d137.7526359"" target=”_blank”>Googlemap</a>"
56,鹿島槍ヶ岳,北アルプス,2890m,☆☆,☆☆☆,2泊3日,36.62465323,137.747028,〒398-0001 長野県大町市平,"<a href=""https://www.google.com/maps/place/%E9%B9%BF%E5%B3%B6%E6%A7%8D%E3%83%B6%E5%B2%B3/@36.6246963,137.7426935,16z/data=!3m1!4b1!4m5!3m4!1s0x5ff7db11e362caaf:0xd1b07edeaccd259!8m2!3d36.6246883!4d137.7470709"" target=”_blank”>Googlemap</a>"
57,剱岳,北アルプス,2999m,☆☆☆,☆☆☆,1泊2日,36.62351222,137.6174016,〒930-1406 富山県中新川郡立山町芦峅寺,"<a href=""https://www.google.com/maps/place/%E5%89%B1%E5%B2%B3/@36.6235208,137.6130671,16z/data=!3m1!4b1!4m5!3m4!1s0x5ff7c2fb040b1c13:0xc09ed294d905175a!8m2!3d36.6235128!4d137.6174445"" target=”_blank”>Googlemap</a>"
58,立山,北アルプス,3015m,☆☆,☆☆,1泊2日,36.57577762,137.6196323,〒930-1406 富山県中新川郡立山町芦峅寺,"<a href=""https://www.google.com/maps/place/%E7%AB%8B%E5%B1%B1/@36.5788309,137.5999327,14.75z/data=!4m13!1m7!3m6!1s0x5ff7e99ca8e9e319:0xc63a2d93c2b2e65!2z5a-M5bGx55yM5Lit5paw5bed6YOh56uL5bGx55S6!3b1!8m2!3d36.6634662!4d137.3137323!3m4!1s0x5ff7e7ef2b1141c7:0x3420e3c868892a4f!8m2!3d36.5758353!4d137.6197243"" target=”_blank”>Googlemap</a>"
59,薬師岳,北アルプス,2926m,☆☆,☆☆,1泊2日,36.4692075,137.5449941,〒930-1458 富山県富山市有峰,"<a href=""https://www.google.com/maps/place/%E8%96%AC%E5%B8%AB%E5%B2%B3/@36.4692851,137.5406167,16z/data=!3m1!4b1!4m5!3m4!1s0x5ff7fcc5e49f80f1:0xf3192927b96530f8!8m2!3d36.4692771!4d137.5449941"" target=”_blank”>Googlemap</a>"
60,黒部五郎岳,北アルプス,2840m,☆☆,☆☆☆,3泊4日,36.39250183,137.5399985,〒930-1458 富山県富山市有峰,"<a href=""https://www.google.com/maps/place/%E8%96%AC%E5%B8%AB%E5%B2%B3/@36.4692766,137.5449941,15z/data=!3m1!4b1!4m5!3m4!1s0x5ff7fcc5e49f80f1:0xf3192927b96530f8!8m2!3d36.4692771!4d137.5449941"" target=”_blank”>Googlemap</a>"
61,水晶岳,北アルプス,2978m,☆☆,☆☆☆,2泊3日,36.42715537,137.6025155,〒930-1458 富山県富山市有峰,"<a href=""https://www.google.com/maps/place/%E6%B0%B4%E6%99%B6%E5%B2%B3/@36.4272417,137.5938036,15z/data=!3m1!4b1!4m5!3m4!1s0x601d578b3583b0f5:0x9c204ef773c758cc!8m2!3d36.4272253!4d137.6025584"" target=”_blank”>Googlemap</a>"
62,鷲羽岳,北アルプス,2924m,☆☆,☆☆☆,2泊3日,36.40284071,137.6053083,〒930-1458 富山県富山市有峰,"<a href=""https://www.google.com/maps/place/%E9%B7%B2%E7%BE%BD%E5%B2%B3/@36.4029616,137.5965106,15z/data=!3m1!4b1!4m5!3m4!1s0x601d577d59ab043b:0x402bad5ec802173c!8m2!3d36.4029452!4d137.6052654"" target=”_blank”>Googlemap</a>"
63,槍ヶ岳,北アルプス,3180m,☆☆☆,☆☆☆,2泊3日,36.34196324,137.6476213,〒398-0001 長野県大町市平,"<a href=""https://www.google.com/maps/place/%E6%A7%8D%E3%83%B6%E5%B2%B3/@36.3420497,137.6388665,15z/data=!3m1!4b1!4m5!3m4!1s0x601d5b1fac1d9db5:0x774811c573c6ac82!8m2!3d36.3420332!4d137.6476213"" target=”_blank”>Googlemap</a>"
64,穂高岳,北アルプス,3190m,☆☆☆,☆☆☆,2泊3日,36.289097,137.648056,〒390-1520 長野県松本市安曇,"<a href=""https://www.google.com/maps/place/%E7%A9%82%E9%AB%98%E5%B2%B3/@36.2891835,137.6393012,15z/data=!3m1!4b1!4m5!3m4!1s0x601d44feff37d4a7:0x96f9d7aee0c57b46!8m2!3d36.289167!4d137.648056"" target=”_blank”>Googlemap</a>"
65,常念岳,北アルプス,2857m,☆☆,☆☆,1泊2日,36.32537278,137.7276944,〒390-1520 長野県松本市安曇,"<a href=""https://www.google.com/maps/place/%E5%B8%B8%E5%BF%B5%E5%B2%B3/@36.3252449,137.726753,18.96z/data=!4m10!1m2!2m1!1z5bi45b-15bKz!3m6!1s0x601d42fe9e3feabf:0x9a866cef18e19fda!8m2!3d36.3253767!4d137.7276937!15sCgnluLjlv7XlsrNaCyIJ5bi45b-15bKzkgEEcGVha5oBI0NoWkRTVWhOTUc5blMwVkpRMEZuU1VOUk1UVnVVRWRCRUFF4AEA!16s%2Fg%2F121vxnrn"" target=”_blank”>Googlemap</a>"
66,笠ヶ岳,北アルプス,2897m,☆☆,☆☆☆,1泊2日,36.31539137,137.550413,〒506-1308 岐阜県高山市上宝町金木戸,"<a href=""https://www.google.com/maps/place/%E7%AC%A0%E3%83%B6%E5%B2%B3/@36.3154778,137.5416582,15z/data=!3m1!4b1!4m5!3m4!1s0x601d51a09da7ec5d:0x3c4125c53c14d528!8m2!3d36.3154614!4d137.550413"" target=”_blank”>Googlemap</a>"
67,焼岳,北アルプス,2444m,☆☆,☆☆,日帰り,36.22704161,137.5869444,〒390-1520 長野県松本市安曇,"<a href=""https://www.google.com/maps/place/%E7%84%BC%E5%B2%B3/@36.2270935,137.5782325,15z/data=!3m1!4b1!4m5!3m4!1s0x601d4f4a65649675:0xc0e823f8b8debb2f!8m2!3d36.2270771!4d137.5869873"" target=”_blank”>Googlemap</a>"
68,乗鞍岳,北アルプス,3026m,☆,☆,日帰り,36.11625575,137.5360177,〒506-2254 岐阜県高山市丹生川町岩井谷,"<a href=""https://www.google.com/maps/place/%E4%B9%97%E9%9E%8D%E5%B2%B3/@36.1163424,137.5272629,15z/data=!3m1!4b1!4m5!3m4!1s0x601d3642cdd17563:0x84523816ece85342!8m2!3d36.1163259!4d137.5360177"" target=”_blank”>Googlemap</a>"
69,美ヶ原,美ヶ原,2034m,☆,☆☆,日帰り,36.2256577,138.1073991,〒390-0222 長野県松本市入山辺,"<a href=""https://www.google.com/maps/place/%E7%BE%8E%E3%83%B6%E5%8E%9F/@36.2258135,138.0986872,15z/data=!3m1!4b1!4m5!3m4!1s0x601da871cc69d01d:0xc48c690cf93f160c!8m2!3d36.225797!4d138.107442"" target=”_blank”>Googlemap</a>"
70,霧ヶ峰,霧ヶ峰,1925m,☆,☆,日帰り,36.10322919,138.1968065,〒392-0012 長野県諏訪市四賀,"<a href=""https://www.google.com/maps/place/%E9%9C%A7%E3%83%B6%E5%B3%B0/@36.0939534,138.1651778,15z/data=!4m10!1m2!2m1!1z6Zyn44O25bOw!3m6!1s0x601c53e778733601:0x3afe7346e3c886fc!8m2!3d36.1031337!4d138.1968726!15sCgnpnKfjg7bls7BaCyIJ6Zyn44O25bOwkgELc2NlbmljX3Nwb3SaASRDaGREU1VoTk1HOW5TMFZKUTBGblNVUXlkRmxYWkhkQlJSQULgAQA!16s%2Fg%2F11h3m831r5"" target=”_blank”>Googlemap</a>"
71,蓼科山,蓼科山,2530m,☆,☆☆,1泊2日,36.10366263,138.2948849,〒384-2309 長野県北佐久郡立科町芦田八ケ野,"<a href=""https://www.google.com/maps/place/%E8%93%BC%E7%A7%91%E5%B1%B1/@36.1037493,138.2861301,15z/data=!3m1!4b1!4m5!3m4!1s0x601c4c2394347745:0x2f4f7530d7221dc2!8m2!3d36.1037328!4d138.2948849"" target=”_blank”>Googlemap</a>"
72,八ヶ岳,八ヶ岳,2899m,☆☆,☆☆,1泊2日,35.96997389,138.3701853,〒399-0212 長野県諏訪郡富士見町立沢,"<a href=""https://www.google.com/maps/place/%E5%85%AB%E3%83%B6%E5%B2%B3/@35.9828933,138.2376627,12z/data=!4m10!1m2!2m1!1z5YWr44O25bKz!3m6!1s0x601c40c3405db4a9:0x942e04a2a9d78b49!8m2!3d35.970833!4d138.37!15sCgnlhavjg7blsrNaCyIJ5YWr44O25bKzkgEHdm9sY2Fub5oBJENoZERTVWhOTUc5blMwVkpRMEZuU1VSbGJqZEVNSHBCUlJBQuABAA!16s%2Fm%2F04jkz8c"" target=”_blank”>Googlemap</a>"
73,御嶽山,御嶽山,3067m,☆☆,☆☆☆,1泊2日,35.88229096,137.4484908,〒397-0201 長野県木曽郡王滝村,"<a href=""https://www.google.com/maps/place/%E5%BE%A1%E5%B6%BD%E5%B1%B1/@35.8823431,137.4397789,15z/data=!3m1!4b1!4m5!3m4!1s0x601d2c83278bbb09:0xd58dc895ddd21105!8m2!3d35.8823266!4d137.4485337"" target=”_blank”>Googlemap</a>"
74,木曽駒ヶ岳,中央アルプス,2956m,☆☆,☆☆,1泊2日,35.78940832,137.804444,〒399-5608 長野県木曽郡上松町荻原,"<a href=""https://www.google.com/maps/place/%E6%9C%A8%E6%9B%BD%E9%A7%92%E3%83%B6%E5%B2%B3/@35.7894605,137.7956892,15z/data=!3m1!4b1!4m5!3m4!1s0x601ce8f7f54c26cb:0x14fcb3bc711a1752!8m2!3d35.789444!4d137.804444"" target=”_blank”>Googlemap</a>"
75,空木岳,中央アルプス,2864m,☆☆☆,☆☆☆,1泊2日,35.71903969,137.8173044,〒399-4117 長野県駒ヶ根市赤穂,"<a href=""https://www.google.com/maps/place/%E7%A9%BA%E6%9C%A8%E5%B2%B3/@35.719092,137.8085496,15z/data=!3m1!4b1!4m5!3m4!1s0x601ceba46c138a7f:0xcd4f42491c3901f!8m2!3d35.7190754!4d137.8173044"" target=”_blank”>Googlemap</a>"
76,恵那山,中央アルプス,2191m,☆,☆☆,日帰り,35.44327928,137.5970233,〒508-0001 岐阜県中津川市中津川,"<a href=""https://www.google.com/maps/place/%E6%81%B5%E9%82%A3%E5%B1%B1/@35.4432968,137.5882685,15z/data=!3m1!4b1!4m5!3m4!1s0x601cb004af61cdab:0x9c4c96c0736eeb42!8m2!3d35.4432801!4d137.5970233"" target=”_blank”>Googlemap</a>"
77,甲斐駒ヶ岳,南アルプス,2967m,☆☆,☆☆,1泊2日,35.75770748,138.236667,〒396-0403 長野県伊那市長谷黒河内,"<a href=""https://www.google.com/maps/place/%E7%94%B2%E6%96%90%E9%A7%92%E3%83%B6%E5%B2%B3/@35.7577945,138.2279122,15z/data=!3m1!4b1!4m5!3m4!1s0x601c658886583c2d:0xc86bf7eaca2385dc!8m2!3d35.757778!4d138.236667"" target=”_blank”>Googlemap</a>"
78,仙丈ヶ岳,南アルプス,3033m,☆☆,☆☆,1泊2日,35.71993139,138.1835896,〒400-0241 山梨県南アルプス市芦安芦倉,"<a href=""https://www.google.com/maps/place/%E4%BB%99%E4%B8%88%E3%83%B6%E5%B2%B3/@35.7199837,138.1748777,15z/data=!3m1!4b1!4m5!3m4!1s0x601c64f3c13f8c4d:0x65abb5e237ec93ea!8m2!3d35.7199671!4d138.1836325"" target=”_blank”>Googlemap</a>"
79,鳳凰山,南アルプス,2840m,☆☆,☆☆,2泊3日,35.70386153,138.2742071,〒400-0241 山梨県南アルプス市芦安芦倉,"<a href=""https://www.google.com/maps/place/%E9%B3%B3%E5%87%B0%E5%B1%B1/@35.7039138,138.2654952,15z/data=!3m1!4b1!4m5!3m4!1s0x601c71769b6914c5:0x7c9753a89c7cd936!8m2!3d35.7038972!4d138.27425"" target=”_blank”>Googlemap</a>"
80,北岳,南アルプス,3192m,☆☆,☆☆☆,2泊3日,35.67472026,138.2388111,〒400-0241 山梨県南アルプス市芦安芦倉,"<a href=""https://www.google.com/maps/place/%E5%8C%97%E5%B2%B3/@35.6748074,138.2300992,15z/data=!3m1!4b1!4m5!3m4!1s0x601c7a7f78bb7bb3:0xe17b78ff84af641e!8m2!3d35.6747908!4d138.238854"" target=”_blank”>Googlemap</a>"
81,間ノ岳,南アルプス,3189m,☆☆,☆☆☆,2泊3日,35.64596484,138.2283579,〒400-0241 山梨県南アルプス市芦安芦倉,"<a href=""https://www.google.com/maps/place/%E9%96%93%E3%83%8E%E5%B2%B3/@35.6461218,138.2196031,15z/data=!3m1!4b1!4m5!3m4!1s0x601c7a0edc464667:0xe8bebd4a3d2b55bd!8m2!3d35.6461052!4d138.2283579"" target=”_blank”>Googlemap</a>"
82,塩見岳,南アルプス,3047m,☆☆,☆☆☆,2泊3日,35.57369266,138.183111,〒396-0406 長野県伊那市長谷杉島,"<a href=""https://www.google.com/maps/place/%E5%A1%A9%E8%A6%8B%E5%B2%B3/@35.5738497,138.1744421,15z/data=!3m1!4b1!4m5!3m4!1s0x601c78e65934d713:0x5939ab5d297bba4e!8m2!3d35.5738331!4d138.1831969"" target=”_blank”>Googlemap</a>"
83,悪沢岳,南アルプス,3141m,☆☆,☆☆☆,2泊3日,35.50057408,138.1824574,〒428-0505 静岡県静岡市葵区田代,"<a href=""https://www.google.com/maps/place/%E6%82%AA%E6%B2%A2%E5%B2%B3/@35.4998579,138.1731019,15z/data=!4m10!1m2!2m1!1z5oKq5rKi5bKz!3m6!1s0x601b86e6526ae42b:0x3eed5d09caea5e93!8m2!3d35.5006224!4d138.1824176!15sCgnmgqrmsqLlsrOSAQRwZWFr4AEA!16s%2Fm%2F05p019v"" target=”_blank”>Googlemap</a>"
84,赤石岳,南アルプス,3120m,☆☆,☆☆☆,2泊3日,35.46117047,138.1573537,〒428-0505 静岡県静岡市葵区田代,"<a href=""https://www.google.com/maps/place/%E8%B5%A4%E7%9F%B3%E5%B2%B3/@35.4612579,138.1485989,15z/data=!3m1!4b1!4m5!3m4!1s0x601b815580306549:0x4849f849a0cbd2fc!8m2!3d35.4612412!4d138.1573537"" target=”_blank”>Googlemap</a>"
85,聖岳,南アルプス,3013m,☆☆,☆☆☆,3泊4日,35.42240955,138.1397482,〒399-1401 長野県飯田市南信濃木沢,"<a href=""https://www.google.com/maps/place/%E8%81%96%E5%B2%B3/@35.4225669,138.1309934,15z/data=!3m1!4b1!4m5!3m4!1s0x601b83a2091a9ac3:0xbcaed30e233bd3fc!8m2!3d35.4225503!4d138.1397482"" target=”_blank”>Googlemap</a>"
86,光岳,南アルプス,2591m,☆☆,☆☆☆,2泊3日,35.33820563,138.0835601,〒399-1401 長野県飯田市南信濃木沢,"<a href=""https://www.google.com/maps/place/%E5%85%89%E5%B2%B3/@35.3382581,138.0748482,15z/data=!3m1!4b1!4m5!3m4!1s0x601b9d6094f4b261:0x65a3af8ed1076c6a!8m2!3d35.3382415!4d138.083603"" target=”_blank”>Googlemap</a>"
87,白山,北陸,2702m,☆☆,☆☆,1泊2日,36.16453985,136.7717391,〒920-2333 石川県白山市尾添,"<a href=""https://www.google.com/maps/place/%E7%99%BD%E5%B1%B1/@36.3176667,136.5183669,11z/data=!4m10!1m2!2m1!1z55m95bGx!3m6!1s0x5ff87dca3eab7b37:0x1d3475609c9de292!8m2!3d36.1663038!4d136.7720368!15sCgbnmb3lsbGSAQRwZWFr4AEA!16s%2Fm%2F04y9y4m"" target=”_blank”>Googlemap</a>"
88,荒島岳,北陸,1524m,☆☆,☆☆☆,日帰り,35.93436849,136.6011654,〒912-0153 福井県大野市仏原,"<a href=""https://www.google.com/maps/place/%E8%8D%92%E5%B3%B6%E5%B2%B3/@35.8415648,136.6392003,9z/data=!4m5!3m4!1s0x600276adcf5445d1:0x812f84b479fe7d9!8m2!3d35.9344388!4d136.6012083"" target=”_blank”>Googlemap</a>"
89,伊吹山,近畿,1377m,☆☆,☆☆,日帰り,35.41783104,136.4065594,〒521-0312 滋賀県米原市上野,"<a href=""https://www.google.com/maps/place/%E4%BC%8A%E5%90%B9%E5%B1%B1/@35.4179185,136.3977617,15z/data=!3m1!4b1!4m5!3m4!1s0x6002317dd0c1e2ab:0x7e619b3f3b5b5d31!8m2!3d35.4179018!4d136.4065165"" target=”_blank”>Googlemap</a>"
90,大台ヶ原山,近畿,1695m,☆,☆,日帰り,34.18515159,136.1091526,〒519-2634 三重県多気郡大台町大杉,"<a href=""https://www.google.com/maps/place/%E5%A4%A7%E5%8F%B0%E3%83%B6%E5%8E%9F%E5%B1%B1/@34.1852758,136.1004407,15z/data=!3m1!4b1!4m5!3m4!1s0x60068f307e4c4de7:0x76fa9fd9c7d822bc!8m2!3d34.1852589!4d136.1091955"" target=”_blank”>Googlemap</a>"
91,大峰山,近畿,1915m,☆☆,☆☆,1泊2日,34.25270624,135.9405131,〒638-0431 奈良県吉野郡天川村洞川,"<a href=""https://www.google.com/maps/place/%E5%A4%A7%E5%B3%B0%E5%B1%B1/@34.2527949,135.9318012,15z/data=!3m1!4b1!4m5!3m4!1s0x60069509b9524433:0x66ef5bf4d3ee36d4!8m2!3d34.252778!4d135.940556"" target=”_blank”>Googlemap</a>"
92,大山,中国,1709m,☆,☆☆,日帰り,35.37807814,133.5496096,〒689-3318 鳥取県西伯郡大山町大山,"<a href=""https://www.google.com/maps/place/%E5%A4%A7%E5%B1%B1/@35.3781656,133.5317568,15z/data=!3m1!4b1!4m5!3m4!1s0x355661dfa732d9a9:0xd4a5636dd9496bcd!8m2!3d35.37815!4d133.5496956"" target=”_blank”>Googlemap</a>"
93,剣山,四国,1955m,☆,☆☆,日帰り,33.85352281,134.0941633,〒778-0201 徳島県三好市東祖谷菅生,"<a href=""https://www.google.com/maps/place/%E5%89%A3%E5%B1%B1/@33.8536119,134.0854085,15z/data=!3m1!4b1!4m5!3m4!1s0x355237d85f748f35:0x5d98f310ebe684fb!8m2!3d33.8535949!4d134.0941633"" target=”_blank”>Googlemap</a>"
94,石鎚山,四国,1982m,☆☆,☆☆,日帰り,33.76814387,133.1143383,〒791-1710 愛媛県上浮穴郡久万高原町若山,"<a href=""https://www.google.com/maps/place/%E7%9F%B3%E9%8E%9A%E5%B1%B1/@33.7682687,133.1055406,15z/data=!3m1!4b1!4m5!3m4!1s0x354fd414370e96e3:0x5dfea11fa47003b3!8m2!3d33.7682517!4d133.1142954"" target=”_blank”>Googlemap</a>"
95,九重山,九州,1787m,☆,☆☆,1泊2日,33.10810715,131.2913574,〒878-0202 大分県竹田市久住町大字有氏,"<a href=""https://www.google.com/maps/place/%E3%81%8F%E3%81%98%E3%82%85%E3%81%86%E9%80%A3%E5%B1%B1/@33.108233,131.2826026,15z/data=!3m1!4b1!4m5!3m4!1s0x3541353b5366af9b:0x1fad26a98fd1c695!8m2!3d33.1082158!4d131.2913574"" target=”_blank”>Googlemap</a>"
96,祖母山,九州,1756m,☆☆,☆☆☆,日帰り,32.82788341,131.3473185,〒879-6865 大分県豊後大野市緒方町尾平鉱山,"<a href=""https://www.google.com/maps/place/%E7%A5%96%E6%AF%8D%E5%B1%B1/@32.8280096,131.3385637,15z/data=!3m1!4b1!4m5!3m4!1s0x3546d4334d374171:0x76e39ef432510c4a!8m2!3d32.8279924!4d131.3473185"" target=”_blank”>Googlemap</a>"
97,阿蘇山,九州,1592m,☆☆,☆☆,日帰り,32.89843353,131.0874325,〒869-2223 熊本県阿蘇市竹原,"<a href=""https://www.google.com/maps/place/%E9%98%BF%E8%98%87%E5%B1%B1/@32.8985236,131.0787206,15z/data=!3m1!4b1!4m5!3m4!1s0x3540d87b844258f9:0x374a44e66d271103!8m2!3d32.8985064!4d131.0874754"" target=”_blank”>Googlemap</a>"
98,霧島山,九州,1700m,☆,☆☆,日帰り,31.92908286,130.9265831,〒886-0004 宮崎県小林市細野,"<a href=""https://www.google.com/maps/place/%E9%9C%A7%E5%B3%B6%E5%B1%B1/@31.9291739,130.9178283,15z/data=!3m1!4b1!4m5!3m4!1s0x353f19ff294b4b55:0x5d23eab9c78a64a!8m2!3d31.9291565!4d130.9265831"" target=”_blank”>Googlemap</a>"
99,開聞岳,九州,922m,☆,☆,日帰り,31.18002541,130.5282616,〒891-0603 鹿児島県指宿市開聞十町,"<a href=""https://www.google.com/maps/place/%E9%96%8B%E8%81%9E%E5%B2%B3/@31.1801358,130.5283045,15z/data=!3m1!4b1!4m5!3m4!1s0x353dd1a70f606843:0x48c3b90d6a8e3ab2!8m2!3d31.1801363!4d130.5283045"" target=”_blank”>Googlemap</a>"
100,宮之浦岳,九州,1936m,☆☆☆,☆☆☆,2泊3日,30.33613859,130.5040217,〒891-4408 鹿児島県熊毛郡屋久島町中間,"<a href=""https://www.google.com/maps/place/%E5%AE%AE%E4%B9%8B%E6%B5%A6%E5%B2%B3/@30.3004518,130.5165419,12.02z/data=!4m5!3m4!1s0x353d230557d6de91:0x5944c1323a2931e!8m2!3d30.3362505!4d130.5040217"" target=”_blank”>Googlemap</a>"
